[Satellite]
VERSION=1.1
NAME=GORIZONT 9 [-]
NICKNAME=GORIZONT 9 [-]
TLE1=1 14940U 84041A   17185.48900758 -.00000150  00000-0  00000-0 0  9995
TLE2=2 14940  14.0963 341.7389 0006328 217.0487 337.4467  1.00322471 89232
